STARLINK-37255          
1 68554U 26070N   26099.83335647 -.00922363  28819-3 -17157-2 0  9999
2 68554  53.1584 228.7997 0000762  42.9060 272.1712 16.00368706  2388
