{
  "norad_id": 68554,
  "name": "STARLINK-37255",
  "history": [
    {
      "epoch": "2026-04-09T20:00:01.999008Z",
      "apogee_km": 273.9037289302523,
      "perigee_km": 272.89003516662797,
      "latitude_deg": -34.63216218268712,
      "longitude_deg": 59.74834130693531,
      "height_km": 284.347760185224,
      "semi_major_axis_km": 6651.533882048439,
      "eccentricity": 7.62e-05,
      "inclination_deg": 53.1584,
      "raan_deg": 228.7997,
      "arg_perigee_deg": 42.906,
      "mean_anomaly_deg": 272.1712,
      "mean_motion_rev_day": 16.00368706
    }
  ]
}